     2              NAVIGATION DATA                         RINEX VERSION / TYPE
CCRINEXN V1.6.0 UX  CDDIS               03-JUL-10 15:33     PGM / RUN BY / DATE 
IGS BROADCAST EPHEMERIS FILE                                COMMENT             
    0.4657D-08  0.1490D-07 -0.5960D-07 -0.1192D-06          ION ALPHA           
    0.8192D+05  0.8192D+05 -0.6554D+05 -0.5243D+06          ION BETA            
   -0.651925802231D-08-0.532907051820D-14    61440     1591 DELTA-UTC: A0,A1,T,W
    15                                                      LEAP SECONDS        
                                                            END OF HEADER       
 4 10  7  2  3 59 44.0 0.116068869829D-03 0.807176547823D-11 0.000000000000D+00
    0.130000000000D+02 0.418437500000D+02 0.535665169747D-08 0.592975903666D+00
    0.246986746788D-05 0.908677524421D-02 0.722333788872D-05 0.515370853043D+04
    0.446384000000D+06 0.167638063431D-07-0.125760689683D+01 0.577419996262D-07
    0.938510728853D+00 0.225968750000D+03 0.613774540619D+00-0.854321300197D-08
    0.828605943335D-10 0.100000000000D+01 0.159000000000D+04 0.000000000000D+00
    0.200000000000D+01 0.000000000000D+00-0.605359673500D-08 0.130000000000D+02
    0.439218000000D+06 0.400000000000D+01 0.000000000000D+00 0.000000000000D+00
 6 10  7  2  3 59 44.0 0.588069669902D-03-0.136424205266D-10 0.000000000000D+00
    0.200000000000D+01-0.410312500000D+02 0.515842915499D-08-0.367838626367D+00
   -0.230595469475D-05 0.629385816865D-02 0.101812183857D-04 0.515366024590D+04
    0.446384000000D+06-0.409781932831D-07-0.235769482386D+01-0.577419996262D-07
    0.934736193937D+00 0.170531250000D+03-0.102755914043D+01-0.834106172441D-08
    0.742888087128D-10 0.100000000000D+01 0.159000000000D+04 0.000000000000D+00
    0.200000000000D+01 0.000000000000D+00-0.512227416039D-08 0.200000000000D+01
    0.439200000000D+06 0.000000000000D+00 0.000000000000D+00 0.000000000000D+00
 8 10  7  2  3 59 44.0 0.598235055804D-05 0.113686837722D-12 0.000000000000D+00
    0.190000000000D+02 0.366250000000D+02 0.376694262257D-08 0.156567890038D+01
    0.198185443878D-05 0.111852182308D-01 0.591948628426D-05 0.515368163109D+04
    0.446384000000D+06-0.149011611938D-07 0.195442879083D+01 0.135973095894D-06
    0.993168998275D+00 0.281656250000D+03 0.310405285174D+01-0.782782606038D-08
    0.202151277555D-09 0.100000000000D+01 0.159000000000D+04 0.000000000000D+00
    0.200000000000D+01 0.000000000000D+00-0.372529029846D-08 0.190000000000D+02
    0.440040000000D+06 0.000000000000D+00 0.000000000000D+00 0.000000000000D+00
10 10  7  2  3 59 44.0-0.459947623312D-04-0.909494701773D-12 0.000000000000D+00
    0.250000000000D+02-0.206250000000D+01 0.490806158332D-08-0.784505398622D+00
   -0.165775418282D-06 0.918029353488D-02 0.568851828575D-05 0.515352181244D+04
    0.446384000000D+06 0.156462192535D-06-0.189850189348D+00 0.180676579475D-06
    0.953131683658D+00 0.265375000000D+03 0.666116438720D+00-0.837820612877D-08
   -0.440732643998D-09 0.100000000000D+01 0.159000000000D+04 0.000000000000D+00
    0.200000000000D+01 0.000000000000D+00-0.279396772385D-08 0.250000000000D+02
    0.444630000000D+06 0.400000000000D+01 0.000000000000D+00 0.000000000000D+00
20 10  7  2  3 59 44.0 0.538965687156D-04-0.454747350886D-12 0.000000000000D+00
    0.120000000000D+02-0.553125000000D+01 0.533665086436D-08 0.348002021898D+00
   -0.262632966042D-06 0.416474463418D-02 0.554323196411D-05 0.515357814598D+04
    0.446384000000D+06-0.689178705216D-07-0.244361276045D+00 0.279396772385D-07
    0.936969407142D+00 0.259218750000D+03 0.132321080417D+01-0.858000024859D-08
   -0.388230457071D-09 0.100000000000D+01 0.159000000000D+04 0.000000000000D+00
    0.200000000000D+01 0.000000000000D+00-0.791624188423D-08 0.120000000000D+02
    0.442500000000D+06 0.000000000000D+00 0.000000000000D+00 0.000000000000D+00
26 10  7  2  3 59 44.0-0.748084858060D-04-0.591171556152D-11 0.000000000000D+00
    0.290000000000D+02 0.156562500000D+02 0.345800118249D-08 0.313649624199D+01
    0.812113285065D-06 0.193568574032D-01 0.928901135921D-05 0.515238056755D+04
    0.446384000000D+06 0.119209289551D-06 0.901186270003D+00-0.139698386192D-06
    0.990448304193D+00 0.213406250000D+03 0.110274405815D+01-0.726387399808D-08
   -0.810748056625D-10 0.100000000000D+01 0.159000000000D+04 0.000000000000D+00
    0.200000000000D+01 0.000000000000D+00-0.605359673500D-08 0.290000000000D+02
    0.439218000000D+06 0.400000000000D+01 0.000000000000D+00 0.000000000000D+00
27 10  7  2  3 59 44.0 0.166287180036D-03 0.352429196937D-11 0.000000000000D+00
    0.800000000000D+01 0.470312500000D+02 0.395516464025D-08-0.171800168318D+01
    0.303797423840D-05 0.215123374946D-01 0.586546957493D-05 0.515361510277D+04
    0.446384000000D+06 0.502914190292D-07 0.182970837122D+01 0.515952706337D-06
    0.978482984578D+00 0.276687500000D+03-0.140317992337D+01-0.788890019976D-08
    0.345371536925D-09 0.100000000000D+01 0.159000000000D+04 0.000000000000D+00
    0.200000000000D+01 0.000000000000D+00-0.419095158577D-08 0.800000000000D+01
    0.439218000000D+06 0.400000000000D+01 0.000000000000D+00 0.000000000000D+00
28 10  7  2  3 59 44.0-0.118492171168D-04 0.113686837722D-11 0.000000000000D+00
    0.140000000000D+02-0.538750000000D+02 0.459411993496D-08-0.656450946285D+00
   -0.258907675743D-05 0.160075405147D-01 0.558421015739D-05 0.515367369461D+04
    0.446384000000D+06-0.126659870148D-06 0.296490516914D+01 0.255182385445D-06
    0.970979238874D+00 0.282250000000D+03-0.195217756325D+01-0.842285084555D-08
    0.260725145963D-10 0.100000000000D+01 0.159000000000D+04 0.000000000000D+00
    0.200000000000D+01 0.000000000000D+00-0.107102096081D-07 0.140000000000D+02
    0.446190000000D+06 0.000000000000D+00 0.000000000000D+00 0.000000000000D+00
 1 10  7  2  4  0  0.0-0.136694405228D-03-0.397903932026D-11 0.000000000000D+00
    0.119000000000D+03-0.622500000000D+02 0.461304929488D-08-0.950324022022D+00
   -0.301934778690D-05 0.483845977578D-02 0.501424074173D-05 0.515479882240D+04
    0.446400000000D+06 0.353902578354D-07 0.292520944150D+01 0.447034835815D-07
    0.965436562651D+00 0.282593750000D+03 0.884882396184D+00-0.822141388346D-08
   -0.678599694973D-11 0.100000000000D+01 0.159000000000D+04 0.000000000000D+00
    0.200000000000D+01 0.630000000000D+02-0.190921127796D-07 0.119000000000D+03
    0.439200000000D+06 0.000000000000D+00 0.000000000000D+00 0.000000000000D+00
 2 10  7  2  4  0  0.0 0.269429292530D-03 0.318323145621D-11 0.000000000000D+00
    0.190000000000D+02 0.396250000000D+02 0.520343102950D-08-0.248952070242D+01
    0.203959643841D-05 0.960963009857D-02 0.765174627304D-05 0.515360043907D+04
    0.446400000000D+06-0.238418579102D-06-0.127542977847D+01-0.141561031342D-06
    0.939372966918D+00 0.219812500000D+03 0.309833035801D+01-0.826248702289D-08
    0.150720563831D-09 0.100000000000D+01 0.159000000000D+04 0.000000000000D+00
    0.200000000000D+01 0.000000000000D+00-0.172294676304D-07 0.190000000000D+02
    0.439548000000D+06 0.400000000000D+01 0.000000000000D+00 0.000000000000D+00
 3 10  7  2  4  0  0.0 0.576015096158D-03 0.500222085975D-11 0.000000000000D+00
    0.480000000000D+02-0.538125000000D+02 0.519057335107D-08-0.257610383078D+01
   -0.305846333504D-05 0.132566967513D-01 0.101942569017D-04 0.515372263336D+04
    0.446400000000D+06 0.257045030594D-06-0.242858766575D+01-0.109896063805D-06
    0.927472456036D+00 0.160406250000D+03 0.100535111357D+01-0.813926760460D-08
    0.100718481043D-09 0.100000000000D+01 0.159000000000D+04 0.000000000000D+00
    0.200000000000D+01 0.000000000000D+00-0.465661287308D-08 0.480000000000D+02
    0.439200000000D+06 0.000000000000D+00 0.000000000000D+00 0.000000000000D+00
 5 10  7  2  4  0  0.0-0.109518878162D-04-0.272848410532D-11 0.000000000000D+00
    0.730000000000D+02-0.906250000000D+00 0.473126871015D-08-0.857434205542D+00
   -0.100582838059D-06 0.181275967043D-02 0.586733222008D-05 0.515373075676D+04
    0.446400000000D+06 0.707805156708D-07-0.215409147101D+00-0.149011611938D-07
    0.958103150350D+00 0.267343750000D+03 0.242738885266D+00-0.819855561218D-08
   -0.397516547457D-09 0.100000000000D+01 0.159000000000D+04 0.000000000000D+00
    0.200000000000D+01 0.000000000000D+00-0.884756445885D-08 0.730000000000D+02
    0.439200000000D+06 0.000000000000D+00 0.000000000000D+00 0.000000000000D+00
 7 10  7  2  4  0  0.0-0.153109431267D-05-0.227373675443D-12 0.000000000000D+00
    0.870000000000D+02 0.419687500000D+02 0.425231998334D-08 0.220983275771D+01
    0.218115746975D-05 0.370167009532D-02 0.582076609135D-05 0.515370857048D+04
    0.446400000000D+06-0.186264514923D-08 0.188575481531D+01 0.372529029846D-07
    0.971758235437D+00 0.271343750000D+03 0.303021117662D+01-0.806926468869D-08
    0.322513433979D-09 0.100000000000D+01 0.159000000000D+04 0.000000000000D+00
    0.200000000000D+01 0.000000000000D+00-0.102445483208D-07 0.870000000000D+02
    0.446310000000D+06 0.000000000000D+00 0.000000000000D+00 0.000000000000D+00
 8 10  7  2  4  0  0.0 0.598980113864D-05 0.113686837722D-12 0.000000000000D+00
    0.101000000000D+03 0.366250000000D+02 0.376729978030D-08 0.156801247854D+01
    0.198185443878D-05 0.111852233531D-01 0.591948628426D-05 0.515368163300D+04
    0.446400000000D+06-0.149011611938D-07 0.195442867380D+01 0.135973095894D-06
    0.993169017293D+00 0.281656250000D+03 0.310405291757D+01-0.782818321811D-08
    0.202151277555D-09 0.100000000000D+01 0.159000000000D+04 0.000000000000D+00
    0.400000000000D+01 0.000000000000D+00-0.372529029846D-08 0.101000000000D+03
    0.439218000000D+06 0.400000000000D+01 0.000000000000D+00 0.000000000000D+00
